SIRION PATHFINDER-2     
1 43759U 18099B   26178.09174429  .00005271  00000+0  28857-3 0  9992
2 43759  97.4250 226.9136 0007131 262.6493  97.3929 15.14632172414123
CORVUS BC4              
1 43767U 18099K   26178.11176971  .00004452  00000+0  25874-3 0  9994
2 43767  97.4064 220.8013 0007211 337.9968  22.0952 15.12571037413900
M2 PATHFINDER           
1 45727U 20037E   26178.02193325  .00003149  00000+0  22781-3 0  9995
2 45727  97.8135   9.3636 0012575 117.8720 242.3781 15.04711813326978
NETSAT-4                
1 46504U 20068U   26177.97566075  .00018846  00000+0  41257-3 0  9991
2 46504  97.8599 187.0041 0003168 284.7568  75.3328 15.44180326317280
NETSAT-3                
1 46505U 20068V   26177.98940770  .00019545  00000+0  44491-3 0  9991
2 46505  97.8652 185.2233 0003071 314.0288  46.0704 15.43008396317191
NETSAT-1                
1 46506U 20068W   26177.98050588  .00012112  00000+0  36068-3 0  9995
2 46506  97.8742 179.4288 0003797 359.9684   0.1557 15.34858405316808
NETSAT-2                
1 46507U 20068X   26178.00192914  .00024515  00000+0  49664-3 0  9996
2 46507  97.8611 186.9638 0001955 349.3625  10.7581 15.46408837317255
GREENCUBE (IO-117)      
1 53109U 22080E   26177.67811985 -.00000003  00000+0  00000+0 0  9990
2 53109  70.1443 294.9444 0008984 287.5437  72.4241  6.42583228 92674
SITRO-AIS 5 (KATYS)     
1 57176U 23091L   26178.21015529  .00013309  00000+0  46415-3 0  9998
2 57176  97.5063 242.2056 0012365  72.3105 287.9484 15.29680365165878
SITRO-AIS 6 (CHIRKIN)   
1 57192U 23091AC  26178.21233131  .00010735  00000+0  41771-3 0  9997
2 57192  97.5069 241.2734 0012795  75.5547 284.7110 15.26120880165819
SITRO-AIS 8 (ANOKHIN)   
1 57193U 23091AD  26178.20954278  .00016030  00000+0  51345-3 0  9991
2 57193  97.5059 243.8346 0011298  68.7327 291.5120 15.32400090165989
SITRO-AIS 7 (FARTUSHNIY)
1 57194U 23091AE  26178.15196017  .00010225  00000+0  40186-3 0  9996
2 57194  97.5067 241.0326 0012722  76.6719 283.5936 15.25803108165797
SITRO-AIS 10 (BURDAEV)  
1 57199U 23091AK  26178.19862197  .00021191  00000+0  55010-3 0  9990
2 57199  97.5085 248.9819 0006691  48.9446 311.2376 15.38980789166302
SITRO-AIS 9 (SHCHUKIN)  
1 57201U 23091AM  26178.16320620  .00021814  00000+0  57546-3 0  9999
2 57201  97.5083 248.6677 0006946  49.2869 310.8978 15.38478191166288
SITRO-AIS 12 (SMIRENNIY)
1 57204U 23091AQ  26178.15192638  .00022358  00000+0  58418-3 0  9990
2 57204  97.5095 249.1295 0006445  43.9683 316.2074 15.38771879166304
SITRO-AIS 11 (SHEFFER)  
1 57208U 23091AU  26178.16257279  .00022566  00000+0  58138-3 0  9998
2 57208  97.5094 249.3933 0006328  43.7088 316.4657 15.39202325166322
SITRO-AIS 25            
1 59066U 24039R   26178.22487885  .00002369  00000+0  18687-3 0  9994
2 59066  95.3907 241.9903 0142577 293.2463  65.3804 14.93558977126221
SITRO-AIS 26            
1 59067U 24039S   26178.22762556  .00002335  00000+0  18511-3 0  9995
2 59067  95.3908 241.8877 0142930 293.8342  64.7957 14.93353003126211
SITRO-AIS 27            
1 59068U 24039T   26178.19505751  .00003229  00000+0  25262-3 0  9998
2 59068  95.3913 242.1417 0141841 292.5238  66.1026 14.93775975126233
SITRO-AIS 28            
1 59071U 24039U   26178.17227277  .00002797  00000+0  21908-3 0  9996
2 59071  95.3910 242.1738 0141854 292.4264  66.1987 14.93807029126234
GRBBETA                 
1 60237U 24128C   26178.17511140  .00003532  00000+0  24710-3 0  9998
2 60237  61.9879 181.2216 0039392 136.7103 223.7097 15.06696550107773
OOV-CUBE (TUBSAT-30)    
1 60240U 24128F   26178.16929439  .00001779  00000+0  14541-3 0  9997
2 60240  61.9924 190.7644 0043394 135.9985 224.4574 15.02807809107612
ROBUSTA-3A (MEDITERRAN*)
1 60243U 24128J   26178.12279856  .00005624  00000+0  33473-3 0  9995
2 60243  61.9840 173.1053 0040066 130.2259 230.2353 15.11764083107926
LASARSAT                
1 62391U 24247Q   26178.11649074  .00032140  00000+0  62780-3 0  9991
2 62391  44.9725 206.3948 0007130  31.8318 328.3002 15.46932622 84854
CROCUBE                 
1 62394U 24247T   26177.77950222  .00035343  00000+0  64439-3 0  9996
2 62394  44.9695 205.4645 0006927  34.5174 325.6166 15.48873131 84830
FORESAIL-1 PRIME        
1 66778U 25276DS  26178.14301976  .00005433  00000+0  26440-3 0  9994
2 66778  97.4203 251.2317 0003890  83.4614 276.7063 15.18788261 31910
KNACKSAT-2              
1 67683U 98067XZ  26177.89305213  .00046488  00000+0  54854-3 0  9992
2 67683  51.6279 245.6263 0008662 259.0293 100.9727 15.60825200 21796
