OBJECT_NAME,OBJECT_ID,EPOCH,MEAN_MOTION,ECCENTRICITY,INCLINATION,RA_OF_ASC_NODE,ARG_OF_PERICENTER,MEAN_ANOMALY,EPHEMERIS_TYPE,CLASSIFICATION_TYPE,NORAD_CAT_ID,ELEMENT_SET_NO,REV_AT_EPOCH,BSTAR,MEAN_MOTION_DOT,MEAN_MOTION_DDOT
SIRION PATHFINDER-2,2018-099B,2026-06-27T02:12:06.706656,15.14632172,.0007131,97.4250,226.9136,262.6493,97.3929,0,U,43759,999,41412,.28857E-3,.5271E-4,0
CORVUS BC4,2018-099K,2026-06-27T02:40:56.902944,15.12571037,.0007211,97.4064,220.8013,337.9968,22.0952,0,U,43767,999,41390,.25874E-3,.4452E-4,0
M2 PATHFINDER,2020-037E,2026-06-27T00:31:35.032800,15.04711813,.0012575,97.8135,9.3636,117.8720,242.3781,0,U,45727,999,32697,.22781E-3,.3149E-4,0
NETSAT-4,2020-068U,2026-06-26T23:24:57.088800,15.44180326,.0003168,97.8599,187.0041,284.7568,75.3328,0,U,46504,999,31728,.41257E-3,.18846E-3,0
NETSAT-3,2020-068V,2026-06-26T23:44:44.825280,15.43008396,.0003071,97.8652,185.2233,314.0288,46.0704,0,U,46505,999,31719,.44491E-3,.19545E-3,0
NETSAT-1,2020-068W,2026-06-26T23:31:55.708032,15.34858405,.0003797,97.8742,179.4288,359.9684,0.1557,0,U,46506,999,31680,.36068E-3,.12112E-3,0
NETSAT-2,2020-068X,2026-06-27T00:02:46.677696,15.46408837,.0001955,97.8611,186.9638,349.3625,10.7581,0,U,46507,999,31725,.49664E-3,.24515E-3,0
GREENCUBE (IO-117),2022-080E,2026-06-26T16:16:29.555040,6.42583228,.00089846,70.1443,294.9444,287.5437,72.4241,0,U,53109,999,9267,0,-.3E-7,0
SITRO-AIS 5 (KATYS),2023-091L,2026-06-27T05:02:37.417056,15.29680365,.0012365,97.5063,242.2056,72.3105,287.9484,0,U,57176,999,16587,.46415E-3,.13309E-3,0
SITRO-AIS 6 (CHIRKIN),2023-091AC,2026-06-27T05:05:45.425184,15.26120880,.0012795,97.5069,241.2734,75.5547,284.7110,0,U,57192,999,16581,.41771E-3,.10735E-3,0
SITRO-AIS 8 (ANOKHIN),2023-091AD,2026-06-27T05:01:44.496192,15.32400090,.0011298,97.5059,243.8346,68.7327,291.5120,0,U,57193,999,16598,.51345E-3,.1603E-3,0
SITRO-AIS 7 (FARTUSHNIY),2023-091AE,2026-06-27T03:38:49.358688,15.25803108,.0012722,97.5067,241.0326,76.6719,283.5936,0,U,57194,999,16579,.40186E-3,.10225E-3,0
SITRO-AIS 10 (BURDAEV),2023-091AK,2026-06-27T04:46:00.938208,15.38980789,.0006691,97.5085,248.9819,48.9446,311.2376,0,U,57199,999,16630,.5501E-3,.21191E-3,0
SITRO-AIS 9 (SHCHUKIN),2023-091AM,2026-06-27T03:55:01.015680,15.38478191,.0006946,97.5083,248.6677,49.2869,310.8978,0,U,57201,999,16628,.57546E-3,.21814E-3,0
SITRO-AIS 12 (SMIRENNIY),2023-091AQ,2026-06-27T03:38:46.439232,15.38771879,.0006445,97.5095,249.1295,43.9683,316.2074,0,U,57204,999,16630,.58418E-3,.22358E-3,0
SITRO-AIS 11 (SHEFFER),2023-091AU,2026-06-27T03:54:06.289056,15.39202325,.0006328,97.5094,249.3933,43.7088,316.4657,0,U,57208,999,16632,.58138E-3,.22566E-3,0
SITRO-AIS 25,2024-039R,2026-06-27T05:23:49.532640,14.93558977,.0142577,95.3907,241.9903,293.2463,65.3804,0,U,59066,999,12622,.18687E-3,.2369E-4,0
SITRO-AIS 26,2024-039S,2026-06-27T05:27:46.848384,14.93353003,.014293,95.3908,241.8877,293.8342,64.7957,0,U,59067,999,12621,.18511E-3,.2335E-4,0
SITRO-AIS 27,2024-039T,2026-06-27T04:40:52.968864,14.93775975,.0141841,95.3913,242.1417,292.5238,66.1026,0,U,59068,999,12623,.25262E-3,.3229E-4,0
SITRO-AIS 28,2024-039U,2026-06-27T04:08:04.367328,14.93807029,.0141854,95.3910,242.1738,292.4264,66.1987,0,U,59071,999,12623,.21908E-3,.2797E-4,0
GRBBETA,2024-128C,2026-06-27T04:12:09.624960,15.06696550,.0039392,61.9879,181.2216,136.7103,223.7097,0,U,60237,999,10777,.2471E-3,.3532E-4,0
OOV-CUBE (TUBSAT-30),2024-128F,2026-06-27T04:03:47.035296,15.02807809,.0043394,61.9924,190.7644,135.9985,224.4574,0,U,60240,999,10761,.14541E-3,.1779E-4,0
ROBUSTA-3A (MEDITERRANEE),2024-128J,2026-06-27T02:56:49.795584,15.11764083,.0040066,61.9840,173.1053,130.2259,230.2353,0,U,60243,999,10792,.33473E-3,.5624E-4,0
LASARSAT,2024-247Q,2026-06-27T02:47:44.799936,15.46932622,.000713,44.9725,206.3948,31.8318,328.3002,0,U,62391,999,8485,.6278E-3,.3214E-3,0
CROCUBE,2024-247T,2026-06-26T18:42:28.991808,15.48873131,.00069271,44.9695,205.4645,34.5174,325.6166,0,U,62394,999,8483,.64439449E-3,.35343E-3,0
FORESAIL-1 PRIME,2025-276DS,2026-06-27T03:25:56.907264,15.18788261,.000389,97.4203,251.2317,83.4614,276.7063,0,U,66778,999,3191,.2644E-3,.5433E-4,0
KNACKSAT-2,1998-067XZ,2026-06-26T21:25:59.704032,15.60825200,.0008662,51.6279,245.6263,259.0293,100.9727,0,U,67683,999,2179,.54854E-3,.46488E-3,0
